{"type": "FeatureCollection", "features": [ {"type": "Feature", "properties": {"norad_id": 44622, "name": "GAOFEN-10R", "group": "resource", "lat": -51.8879309725611, "lon": 96.59638238257598, "alt_km": 633.3073401281681, "timestamp": "2025-12-05T11:32:55.684196+00:00", "meta": {"OBJECT_NAME": "GAOFEN-10R", "OBJECT_ID": "2019-066A", "EPOCH": "2025-12-04T18:18:27.546048", "MEAN_MOTION": 14.82748485, "ECCENTRICITY": 0.0008238, "INCLINATION": 98.0266, "RA_OF_ASC_NODE": 286.2385, "ARG_OF_PERICENTER": 63.7811, "MEAN_ANOMALY": 296.4248, "EPHEMERIS_TYPE": 0, "CLASSIFICATION_TYPE": "U", "NORAD_CAT_ID": 44622, "ELEMENT_SET_NO": 999, "REV_AT_EPOCH": 33356, "BSTAR": 0.00047195, "MEAN_MOTION_DOT": 3.761e-05, "MEAN_MOTION_DDOT": 0}, "tle": {"line1": "1 44622U 19066A   25338.76281882  .00003761  00000+0  47195-3 0  9998", "line2": "2 44622  98.0266 286.2385 0008238  63.7811 296.4248 14.82748485333568"}}, "geometry": {"type": "Point", "coordinates": [96.59638238257598, -51.8879309725611]}}, {"type": "Feature", "properties": {"norad_id": 44804, "name": "CARTOSAT-3", "group": "resource", "lat": 16.28735205895856, "lon": -138.6491767244364, "alt_km": 503.12341791981544, "timestamp": "2025-12-05T11:32:55.684206+00:00", "meta": {"OBJECT_NAME": "CARTOSAT-3", "OBJECT_ID": "2019-081A", "EPOCH": "2025-12-04T17:26:41.836704", "MEAN_MOTION": 15.1926105, "ECCENTRICITY": 0.0013884, "INCLINATION": 97.46, "RA_OF_ASC_NODE": 38.4117, "ARG_OF_PERICENTER": 112.2538, "MEAN_ANOMALY": 248.0171, "EPHEMERIS_TYPE": 0, "CLASSIFICATION_TYPE": "U", "NORAD_CAT_ID": 44804, "ELEMENT_SET_NO": 999, "REV_AT_EPOCH": 33394, "BSTAR": 0.00036507, "MEAN_MOTION_DOT": 7.65e-05, "MEAN_MOTION_DDOT": 0}, "tle": {"line1": "1 44804U 19081A   25338.72687311  .00007650  00000+0  36507-3 0  9996", "line2": "2 44804  97.4600  38.4117 0013884 112.2538 248.0171 15.19261050333943"}}, "geometry": {"type": "Point", "coordinates": [-138.6491767244364, 16.28735205895856]}}, {"type": "Feature", "properties": {"norad_id": 44819, "name": "GAOFEN-12 01", "group": "resource", "lat": -15.009071567344447, "lon": 163.8429906104076, "alt_km": 632.0682094802796, "timestamp": "2025-12-05T11:32:55.684217+00:00", "meta": {"OBJECT_NAME": "GAOFEN-12 01", "OBJECT_ID": "2019-082A", "EPOCH": "2025-12-04T18:27:05.304960", "MEAN_MOTION": 14.80643124, "ECCENTRICITY": 0.0001223, "INCLINATION": 97.8128, "RA_OF_ASC_NODE": 345.259, "ARG_OF_PERICENTER": 289.0894, "MEAN_ANOMALY": 71.0186, "EPHEMERIS_TYPE": 0, "CLASSIFICATION_TYPE": "U", "NORAD_CAT_ID": 44819, "ELEMENT_SET_NO": 999, "REV_AT_EPOCH": 32532, "BSTAR": 0.00013762, "MEAN_MOTION_DOT": 1.006e-05, "MEAN_MOTION_DDOT": 0}, "tle": {"line1": "1 44819U 19082A   25338.76881140  .00001006  00000+0  13762-3 0  9990", "line2": "2 44819  97.8128 345.2590 0001223 289.0894  71.0186 14.80643124325320"}}, "geometry": {"type": "Point", "coordinates": [163.8429906104076, -15.009071567344447]}}, {"type": "Feature", "properties": {"norad_id": 44873, "name": "CSG-1", "group": "resource", "lat": -81.4413677957232, "lon": -86.06255356379377, "alt_km": 630.9267845310778, "timestamp": "2025-12-05T11:32:55.684226+00:00", "meta": {"OBJECT_NAME": "CSG-1", "OBJECT_ID": "2019-092A", "EPOCH": "2025-12-04T18:08:48.005088", "MEAN_MOTION": 14.8214684, "ECCENTRICITY": 0.0001459, "INCLINATION": 97.8806, "RA_OF_ASC_NODE": 160.2004, "ARG_OF_PERICENTER": 86.8541, "MEAN_ANOMALY": 273.2839, "EPHEMERIS_TYPE": 0, "CLASSIFICATION_TYPE": "U", "NORAD_CAT_ID": 44873, "ELEMENT_SET_NO": 999, "REV_AT_EPOCH": 32267, "BSTAR": 0.00015603, "MEAN_MOTION_DOT": 1.19e-05, "MEAN_MOTION_DDOT": 0}, "tle": {"line1": "1 44873U 19092A   25338.75611117  .00001190  00000+0  15603-3 0  9995", "line2": "2 44873  97.8806 160.2004 0001459  86.8541 273.2839 14.82146840322672"}}, "geometry": {"type": "Point", "coordinates": [-86.06255356379377, -81.4413677957232]}}, {"type": "Feature", "properties": {"norad_id": 46277, "name": "NEMO-HD", "group": "resource", "lat": -9.084414966471162, "lon": 39.83494366540069, "alt_km": 449.5449211806599, "timestamp": "2025-12-05T11:32:55.684237+00:00", "meta": {"OBJECT_NAME": "NEMO-HD", "OBJECT_ID": "2020-061F", "EPOCH": "2025-12-04T18:26:07.736640", "MEAN_MOTION": 15.40082137, "ECCENTRICITY": 0.0002306, "INCLINATION": 97.2226, "RA_OF_ASC_NODE": 37.9691, "ARG_OF_PERICENTER": 66.7345, "MEAN_ANOMALY": 293.4144, "EPHEMERIS_TYPE": 0, "CLASSIFICATION_TYPE": "U", "NORAD_CAT_ID": 46277, "ELEMENT_SET_NO": 999, "REV_AT_EPOCH": 29201, "BSTAR": 0.00052034, "MEAN_MOTION_DOT": 0.00020766, "MEAN_MOTION_DDOT": 0}, "tle": {"line1": "1 46277U 20061F   25338.76814510  .00020766  00000+0  52034-3 0  9995", "line2": "2 46277  97.2226  37.9691 0002306  66.7345 293.4144 15.40082137292015"}}, "geometry": {"type": "Point", "coordinates": [39.83494366540069, -9.084414966471162]}}, {"type": "Feature", "properties": {"norad_id": 46984, "name": "SENTINEL-6A", "group": "resource", "lat": 58.70164090535014, "lon": -49.617867719833086, "alt_km": 1336.703265308618, "timestamp": "2025-12-05T11:32:55.684247+00:00", "meta": {"OBJECT_NAME": "SENTINEL-6A", "OBJECT_ID": "2020-086A", "EPOCH": "2025-12-04T16:14:03.093216", "MEAN_MOTION": 12.80930272, "ECCENTRICITY": 0.0007731, "INCLINATION": 66.039, "RA_OF_ASC_NODE": 179.0559, "ARG_OF_PERICENTER": 269.1528, "MEAN_ANOMALY": 90.8601, "EPHEMERIS_TYPE": 0, "CLASSIFICATION_TYPE": "U", "NORAD_CAT_ID": 46984, "ELEMENT_SET_NO": 999, "REV_AT_EPOCH": 23541, "BSTAR": 0.00018539, "MEAN_MOTION_DOT": -1.8e-07, "MEAN_MOTION_DDOT": 0}, "tle": {"line1": "1 46984U 20086A   25338.67642469 -.00000018  00000+0  18539-3 0  9990", "line2": "2 46984  66.0390 179.0559 0007731 269.1528  90.8601 12.80930272235417"}}, "geometry": {"type": "Point", "coordinates": [-49.617867719833086, 58.70164090535014]}}, {"type": "Feature", "properties": {"norad_id": 48079, "name": "GAOFEN-12 02", "group": "resource", "lat": -25.655496397899558, "lon": 149.65702435783922, "alt_km": 632.9546557508856, "timestamp": "2025-12-05T11:32:55.684257+00:00", "meta": {"OBJECT_NAME": "GAOFEN-12 02", "OBJECT_ID": "2021-026A", "EPOCH": "2025-12-04T18:24:12.982752", "MEAN_MOTION": 14.80660402, "ECCENTRICITY": 0.0003312, "INCLINATION": 97.9849, "RA_OF_ASC_NODE": 332.8119, "ARG_OF_PERICENTER": 116.927, "MEAN_ANOMALY": 243.2281, "EPHEMERIS_TYPE": 0, "CLASSIFICATION_TYPE": "U", "NORAD_CAT_ID": 48079, "ELEMENT_SET_NO": 999, "REV_AT_EPOCH": 25299, "BSTAR": 0.00013989, "MEAN_MOTION_DOT": 1.022e-05, "MEAN_MOTION_DDOT": 0}, "tle": {"line1": "1 48079U 21026A   25338.76681693  .00001022  00000+0  13989-3 0  9993", "line2": "2 48079  97.9849 332.8119 0003312 116.9270 243.2281 14.80660402252998"}}, "geometry": {"type": "Point", "coordinates": [149.65702435783922, -25.655496397899558]}}, {"type": "Feature", "properties": {"norad_id": 48268, "name": "PLEIADES NEO 3", "group": "resource", "lat": -65.42630956759102, "lon": -145.6392926006106, "alt_km": 632.1332833121123, "timestamp": "2025-12-05T11:32:55.684268+00:00", "meta": {"OBJECT_NAME": "PLEIADES NEO 3", "OBJECT_ID": "2021-034A", "EPOCH": "2025-12-04T18:13:53.114592", "MEAN_MOTION": 14.81674622, "ECCENTRICITY": 0.0001323, "INCLINATION": 97.8948, "RA_OF_ASC_NODE": 51.3146, "ARG_OF_PERICENTER": 91.4402, "MEAN_ANOMALY": 268.6963, "EPHEMERIS_TYPE": 0, "CLASSIFICATION_TYPE": "U", "NORAD_CAT_ID": 48268, "ELEMENT_SET_NO": 999, "REV_AT_EPOCH": 24886, "BSTAR": -1.7902e-06, "MEAN_MOTION_DOT": -6.6e-07, "MEAN_MOTION_DDOT": 0}, "tle": {"line1": "1 48268U 21034A   25338.75964253 -.00000066  00000+0 -17902-5 0  9997", "line2": "2 48268  97.8948  51.3146 0001323  91.4402 268.6963 14.81674622248863"}}, "geometry": {"type": "Point", "coordinates": [-145.6392926006106, -65.42630956759102]}}, {"type": "Feature", "properties": {"norad_id": 49070, "name": "PLEIADES NEO 4", "group": "resource", "lat": 65.38002705508801, "lon": 34.39567274462696, "alt_km": 616.8474982245543, "timestamp": "2025-12-05T11:32:55.684278+00:00", "meta": {"OBJECT_NAME": "PLEIADES NEO 4", "OBJECT_ID": "2021-073E", "EPOCH": "2025-12-04T17:25:14.715264", "MEAN_MOTION": 14.81674029, "ECCENTRICITY": 0.0001329, "INCLINATION": 97.8949, "RA_OF_ASC_NODE": 51.2776, "ARG_OF_PERICENTER": 96.693, "MEAN_ANOMALY": 263.4434, "EPHEMERIS_TYPE": 0, "CLASSIFICATION_TYPE": "U", "NORAD_CAT_ID": 49070, "ELEMENT_SET_NO": 999, "REV_AT_EPOCH": 23257, "BSTAR": 3.3601e-06, "MEAN_MOTION_DOT": -2.6e-07, "MEAN_MOTION_DDOT": 0}, "tle": {"line1": "1 49070U 21073E   25338.72586476 -.00000026  00000+0  33601-5 0  9995", "line2": "2 49070  97.8949  51.2776 0001329  96.6930 263.4434 14.81674029232571"}}, "geometry": {"type": "Point", "coordinates": [34.39567274462696, 65.38002705508801]}}, {"type": "Feature", "properties": {"norad_id": 49260, "name": "LANDSAT 9", "group": "resource", "lat": 3.770236228800345, "lon": 47.15188186709348, "alt_km": 704.9178724518097, "timestamp": "2025-12-05T11:32:55.684288+00:00", "meta": {"OBJECT_NAME": "LANDSAT 9", "OBJECT_ID": "2021-088A", "EPOCH": "2025-12-04T15:45:16.682112", "MEAN_MOTION": 14.57117787, "ECCENTRICITY": 0.0001076, "INCLINATION": 98.2103, "RA_OF_ASC_NODE": 46.8842, "ARG_OF_PERICENTER": 92.867, "MEAN_ANOMALY": 267.2652, "EPHEMERIS_TYPE": 0, "CLASSIFICATION_TYPE": "U", "NORAD_CAT_ID": 49260, "ELEMENT_SET_NO": 999, "REV_AT_EPOCH": 22267, "BSTAR": 0.00021529, "MEAN_MOTION_DOT": 9.25e-06, "MEAN_MOTION_DDOT": 0}, "tle": {"line1": "1 49260U 21088A   25338.65644308  .00000925  00000+0  21529-3 0  9994", "line2": "2 49260  98.2103  46.8842 0001076  92.8670 267.2652 14.57117787222671"}}, "geometry": {"type": "Point", "coordinates": [47.15188186709348, 3.770236228800345]}}]}